[{"OBJECT_NAME":"STARLINK-32466","OBJECT_ID":"2024-202Q","EPOCH":"2026-03-09T11:14:28.591008","MEAN_MOTION":15.27579013,"ECCENTRICITY":0.00020003,"INCLINATION":43.0012,"RA_OF_ASC_NODE":239.2537,"ARG_OF_PERICENTER":284.1644,"MEAN_ANOMALY":75.8985,"EPHEMERIS_TYPE":0,"CLASSIFICATION_TYPE":"U","NORAD_CAT_ID":61859,"ELEMENT_SET_NO":999,"REV_AT_EPOCH":7530,"BSTAR":1.3395711e-5,"MEAN_MOTION_DOT":1.06e-6,"MEAN_MOTION_DDOT":0},{"OBJECT_NAME":"SL-4 R\/B","OBJECT_ID":"2014-021B","EPOCH":"2026-03-09T02:37:43.173408","MEAN_MOTION":15.39160447,"ECCENTRICITY":0.00975963,"INCLINATION":51.6078,"RA_OF_ASC_NODE":340.109,"ARG_OF_PERICENTER":100.9217,"MEAN_ANOMALY":260.2766,"EPHEMERIS_TYPE":0,"CLASSIFICATION_TYPE":"U","NORAD_CAT_ID":39679,"ELEMENT_SET_NO":999,"REV_AT_EPOCH":65618,"BSTAR":0.00043042763,"MEAN_MOTION_DOT":0.00019652,"MEAN_MOTION_DDOT":0}]
